STARLINK-3301           
1 50169U 21125P   26068.81313567  .00005757  00000+0  37982-3 0  9993
2 50169  53.2168 248.5679 0001672  83.0504 277.0678 15.08810885236625
DISKSAT A               
1 67222U 25305D   26068.54789610  .00013824  00000+0  90452-3 0  9996
2 67222  45.0023 251.6019 0004082 318.1929  41.8634 15.07741062 12266
